{
  "type": "FeatureCollection",
  "name": "study_area_delhi_ncr",
  "crs": {
    "type": "name",
    "properties": {
      "name": "urn:ogc:def:crs:OGC:1.3:CRS84"
    }
  },
  "features": [
    {
      "type": "Feature",
      "properties": {
        "name": "Delhi-NCR 10km Study Area",
        "description": "Bounding box covering South-East/East Delhi (Yamuna riverfront, Okhla, mixed urban/industrial/greenery)"
      },
      "geometry": {
        "type": "Polygon",
        "coordinates": [
          [
            [77.25, 28.50],
            [77.35, 28.50],
            [77.35, 28.60],
            [77.25, 28.60],
            [77.25, 28.50]
          ]
        ]
      }
    }
  ]
}
